IRIDIUM 136             
1 42962U 17061H   23362.63498539  .00000322  00000+0  10781-3 0  9997
2 42962  86.3964  42.0099 0002416  96.8356 263.3115 14.34217472325618
